#dP2019  6 28  0  0  0.00000000      96 __u+U ITR00 FIT  IAC
## 2059 432000.00000000   900.00000000 58662 0.0000000000000
+  100   C01C02C03C04C05C06C07C08C09C10C11C12C13C14C16E01E02
+        E03E04E05E07E08E09E11E12E13E14E15E18E19E21E24E25E26
+        E27E30E31E33E36G01G02G03G04G05G06G07G08G09G10G11G12
+        G13G14G15G16G17G18G19G20G21G22G23G24G25G26G27G28G29
+        G30G31G32J01J02J03J07R01R02R03R04R05R06R07R08R09R10
+        R11R12R13R14R15R16R17R18R19R20R21R22R23R24R26  0  0
++        13 12 13 13 13  9  9  9  8  8  8  8  9  8  9  5  5
++         6  5  5  5  6  5  5  5  5  5  5  5  5  5  5  5  5
++         5  5  5  5  5  3  3  3 12  3  3  3  3  3  3  3  3
++         3  3  3  3  3  3  3  3  3  3  3  3  3  3  3  3  3
++         3  3  3  9 10  9 14  6  5  5  5  5 10  5  6  5  5
++         5  5  6  5  5  6  5  5  6  6  5  5  5  6  8  0  0
%c M  cc GPS ccc cccc cccc cccc cccc ccccc ccccc ccccc ccccc
%c cc cc ccc ccc cccc cccc cccc cccc ccccc ccccc ccccc ccccc
%f  0.0000000  0.000000000  0.00000000000  0.000000000000000
%f  0.0000000  0.000000000  0.00000000000  0.000000000000000
%i    0    0    0    0      0      0      0      0         0
%i    0    0    0    0      0      0      0      0         0
/* INFORMATION & ANALYSIS CENTER (IAC) OF MCC   (RAPID DATA)
/* S/V CLOCKS ARE ALIGNED TO GPS & GLONASS TIME RESPECTIVELY
/* USING THE BROADCAST EPHEMERIS                            
/* PCV:IGS14_2056 OL/AL:FES2004  NONE     YN ORB:CoN CLK:CoN
*  2019 06 28  7 45  0.00000000
PC01 -32328.759373  27047.948446    111.272027    769.082134
PC02   4408.481416  41940.353534    775.747732     68.941081
PC03 -14804.503106  39473.121815    658.441008    633.024164
PC04 -39618.637469  14395.815863    348.807612    253.297375
PC05  21769.566546  36106.674792    494.054763   -313.442788
PC06 -25068.117178  27823.470496 -19393.456258    588.872603
PC07 -12653.623727  36545.554395 -16073.864539    116.840313
PC08  -7686.292178  20910.571388  35900.723583    167.108280
PC09  -9728.610202  27760.420506 -30093.809321    876.235360
PC10  -1225.482578  41865.108457  -1799.456048   -885.201873
PC11 -14906.368933 -12434.181165 -19977.306117    253.306214
PC12  16179.816894 -13211.001332 -18487.758319    809.296671
PC13   5587.766329  27861.236181  31281.884514   -806.431134
PC14   1729.833541 -24583.571047  13122.814902    548.334911
PC16 -22074.412063  28441.601815 -22044.320719   -904.753444
PE01  -3925.874609 -29251.489455   2331.743024   -635.614613
PE02   3961.558463  29245.812488  -2278.446771     66.836088
PE03  -3885.547408  21759.075006 -19672.330114   -182.281568
PE04 -14668.552643  -9733.453759  23808.458699   -312.062502
PE05 -20333.313063  21138.627359  -3965.303155   -471.187116
PE07  24792.632588  -8181.614441 -13944.805390   -215.907823
PE08  14747.859537   9394.543632 -23874.251565   6332.667483
PE09 -24671.277283   8429.508116  14013.615777   6395.302798
PE11 -27714.474578  -2304.175009  10158.206364   5667.006032
PE12 -24107.408231 -14591.677604  -9096.451197   6324.768912
PE13  27737.148278   2283.531302 -10069.168266    389.181937
PE14     66.635137 -21228.802358 -24595.121673   -622.259049
PE15  24384.600087  14286.887543   8793.046503    905.199633
PE18  -3593.159091  15774.227861  17104.550246   -718.365440
PE19   5821.200621 -22276.675157  18612.899663     -5.497948
PE21   8913.977445 -20743.902623  19144.908959   -541.356887
PE24 -16515.254979    278.216705 -24573.546990   6005.380287
PE25  -8958.099591  20670.954670 -19190.374191   1759.424793
PE26  14934.001919 -11151.042681 -22997.189000   4402.573961
PE27  16507.813342    -20.120094  24570.918155    440.155277
PE30  14374.271642  20566.663995  15693.043482   4754.474177
PE31 -14388.257387 -20676.031314 -15550.208308   -466.011770
PE33  -6752.483374 -17951.857404 -22546.902184   -469.881014
PE36 -14848.991851  11089.335731  23082.512119    694.228720
PG01 -22318.557519 -13800.211937   4921.854916    -52.675181
PG02  10163.324277  20011.816124  14922.460000   -247.700231
PG03 -13486.367972  -8817.002114  21088.396947    183.797318
PG04 -23745.933559  11264.879285  -3810.098018 999999.999999
PG05   3386.286107  24695.472690  -8990.927711      0.326840
PG06  -3879.438310  15371.520184  21344.088259    165.328660
PG07 -20793.143718  -2114.923569 -16398.869377    -53.404973
PG08 -15319.077395  -8546.301474 -19976.999492   -149.124557
PG09 -25201.551658   7697.776625   3332.881047    382.453912
PG10  11357.573675 -20798.469357 -11722.882762      1.908232
PG11 -24105.902486  -9750.190117  -5204.113326   -574.233736
PG12  11432.321607  11937.937762  20613.382613    229.008352
PG13   5304.843780  14222.696043 -21905.517878    -57.079414
PG14  10406.397916 -16501.525406  18265.876746    -74.052241
PG15  17056.008325   7589.291493 -19293.097190   -304.325317
PG16   -683.483227 -24568.728561  -9671.494516    -51.706766
PG17 -18044.517719  14936.024271  12843.196839     79.269040
PG18 -19328.067307 -17874.134297  -4496.710527     65.544378
PG19 -12732.469220  15460.155167  17171.303065   -301.036520
PG20  14128.683501 -12882.324638 -18475.499479    525.649067
PG21  17654.924874  -3848.424078 -18621.646396   -164.826829
PG22 -11979.390419 -16164.915182  17612.488696   -723.514965
PG23 -22325.571205  -2416.215902  14826.955356   -179.763766
PG24  22322.429256  14627.079891   1555.708928    -68.067588
PG25  15231.522763  -2847.443882  21325.653965   -769.316854
PG26   4233.136226 -26086.882074   1335.980017    237.941954
PG27  -2531.093351 -14874.928138 -21944.654722   -169.876804
PG28 -12652.671943  20242.696531 -11141.745554    767.064195
PG29  25432.262073  -3247.581039   6926.376217    165.248530
PG30 -13978.292081   8173.463444 -21054.844610   -132.490236
PG31   3087.349794 -16315.214101  20627.382773     28.038538
PG32  16740.771877 -16268.047973  12617.940299    -25.071889
PJ01 -31473.852837  26366.769208  14522.380651   -280.935219
PJ02 -18904.200608  23232.214711 -25216.109656     -0.643285
PJ03 -29714.366973  27944.335960  16095.521712      1.362806
PJ07 -25364.558829  33673.998494      1.462738     -0.019482
PR01  11867.781763 -21660.451519   6419.290011     45.971957
PR02  -2670.137151 -13414.514701  21563.494529    375.693557
PR03 -14225.503895   2165.689711  21118.714817     -2.573510
PR04 -17394.033299  16889.990539   7974.044778    311.784996
PR05 -10836.412363  21359.197758  -8787.709787     30.881017
PR06   3699.590623  12847.942966 -21731.679990    157.095496
PR07  14409.393964  -2627.935352 -20832.873722    -22.521117
PR08  17475.302575 -16451.559590  -8570.328602     17.012391
PR09  12234.186511  21573.873211   5817.085183     77.338316
PR10  13729.771469  10755.295661  18556.248806     53.154321
PR11   8239.045426  -8473.850408  22624.884639    -70.921568
PR12  -1916.602193 -21245.984609  14001.765614     38.769436
PR13 -11743.824336 -22339.291592  -3760.791234    -25.356282
PR14 -14036.482860 -10473.829906 -18542.507534     40.381901
PR15  -8541.142891   7469.251068 -22824.408250    102.790939
PR16   2299.563097  21398.161691 -13803.215074      8.070228
PR17 -24755.905702  -4819.987118  -3693.443582    239.290972
PR18 -21772.005316   3146.707636  12972.206067     -1.675695
PR19  -7260.266263   9185.795122  22656.367027    -38.820203
PR20  13419.039716  10590.804871  18913.398976   -382.627437
PR21  24933.609335   4531.766593   3010.086879    -56.598261
PR22  19917.987237  -4308.162363 -15259.736180    -25.964541
PR23   1127.777684 -10425.699065 -23265.830251    237.216991
PR24 -15337.767696 -10077.029432 -17755.164796   -182.036718
PR26  10877.813405  10703.390871  20453.671079    -19.983789
EOF
